{
  "type": "FeatureCollection",
  "features": [
    {
      "type": "Feature",
      "properties": {
        "norad_id": 22490,
        "name": "SCD 1",
        "group": "resource",
        "lat": -24.811934052903876,
        "lon": 104.69147836078561,
        "alt_km": 768.4977175080758,
        "timestamp": "2025-12-25T07:00:33.698927+00:00",
        "meta_object_name": "SCD 1",
        "meta_object_id": "1993-009B",
        "meta_epoch": "2025-12-24T21:37:14.666016",
        "meta_mean_motion": 14.46006798,
        "meta_eccentricity": 0.00421805,
        "meta_inclination": 24.9676,
        "meta_ra_of_asc_node": 203.6132,
        "meta_arg_of_pericenter": 93.4836,
        "meta_mean_anomaly": 289.9522,
        "meta_ephemeris_type": 0,
        "meta_classification_type": "U",
        "meta_norad_cat_id": 22490,
        "meta_element_set_no": 999,
        "meta_rev_at_epoch": 73586,
        "meta_bstar": 8.128498e-05,
        "meta_mean_motion_dot": 4.83e-06,
        "meta_mean_motion_ddot": 0,
        "tle_line1": "1 22490U 93009B   25358.90086419  .00000483  00000+0  81285-4 0  9990",
        "tle_line2": "2 22490  24.9676 203.6132 0042180  93.4836 289.9522 14.46006798735869"
      },
      "geometry": {
        "type": "Point",
        "coordinates": [
          104.69147836078561,
          -24.811934052903876
        ]
      }
    },
    {
      "type": "Feature",
      "properties": {
        "norad_id": 25397,
        "name": "TECHSAT 1B (GO-32)",
        "group": "resource",
        "lat": 57.13179770335015,
        "lon": -31.392813659640613,
        "alt_km": 803.9362089033011,
        "timestamp": "2025-12-25T07:00:33.698954+00:00",
        "meta_object_name": "TECHSAT 1B (GO-32)",
        "meta_object_id": "1998-043D",
        "meta_epoch": "2025-12-24T20:37:17.748480",
        "meta_mean_motion": 14.24380271,
        "meta_eccentricity": 0.00016683,
        "meta_inclination": 98.9932,
        "meta_ra_of_asc_node": 342.3516,
        "meta_arg_of_pericenter": 37.3772,
        "meta_mean_anomaly": 322.7522,
        "meta_ephemeris_type": 0,
        "meta_classification_type": "U",
        "meta_norad_cat_id": 25397,
        "meta_element_set_no": 999,
        "meta_rev_at_epoch": 42651,
        "meta_bstar": 5.2942367e-05,
        "meta_mean_motion_dot": 7.6e-07,
        "meta_mean_motion_ddot": 0,
        "tle_line1": "1 25397U 98043D   25358.85923320  .00000076  00000+0  52942-4 0  9993",
        "tle_line2": "2 25397  98.9932 342.3516 0001668  37.3772 322.7522 14.24380271426515"
      },
      "geometry": {
        "type": "Point",
        "coordinates": [
          -31.392813659640613,
          57.13179770335015
        ]
      }
    },
    {
      "type": "Feature",
      "properties": {
        "norad_id": 25504,
        "name": "SCD 2",
        "group": "resource",
        "lat": -24.98090727876077,
        "lon": -25.75047266015104,
        "alt_km": 753.3515763218638,
        "timestamp": "2025-12-25T07:00:33.698969+00:00",
        "meta_object_name": "SCD 2",
        "meta_object_id": "1998-060A",
        "meta_epoch": "2025-12-24T13:48:55.433376",
        "meta_mean_motion": 14.45429519,
        "meta_eccentricity": 0.00170635,
        "meta_inclination": 24.9954,
        "meta_ra_of_asc_node": 68.9145,
        "meta_arg_of_pericenter": 78.1649,
        "meta_mean_anomaly": 56.1547,
        "meta_ephemeris_type": 0,
        "meta_classification_type": "U",
        "meta_norad_cat_id": 25504,
        "meta_element_set_no": 999,
        "meta_rev_at_epoch": 43503,
        "meta_bstar": 7.2332367e-05,
        "meta_mean_motion_dot": 4.41e-06,
        "meta_mean_motion_ddot": 0,
        "tle_line1": "1 25504U 98060A   25358.57564159  .00000441  00000+0  72332-4 0  9993",
        "tle_line2": "2 25504  24.9954  68.9145 0017063  78.1649  56.1547 14.45429519435033"
      },
      "geometry": {
        "type": "Point",
        "coordinates": [
          -25.75047266015104,
          -24.98090727876077
        ]
      }
    },
    {
      "type": "Feature",
      "properties": {
        "norad_id": 25757,
        "name": "DLR-TUBSAT",
        "group": "resource",
        "lat": 77.63292057175452,
        "lon": -151.7944858845768,
        "alt_km": 704.9299577614192,
        "timestamp": "2025-12-25T07:00:33.698982+00:00",
        "meta_object_name": "DLR-TUBSAT",
        "meta_object_id": "1999-029B",
        "meta_epoch": "2025-12-17T13:22:10.787520",
        "meta_mean_motion": 14.52359578,
        "meta_eccentricity": 0.00141996,
        "meta_inclination": 98.6566,
        "meta_ra_of_asc_node": 336.2196,
        "meta_arg_of_pericenter": 177.8976,
        "meta_mean_anomaly": 182.2281,
        "meta_ephemeris_type": 0,
        "meta_classification_type": "U",
        "meta_norad_cat_id": 25757,
        "meta_element_set_no": 999,
        "meta_rev_at_epoch": 40688,
        "meta_bstar": 3.7650132e-05,
        "meta_mean_motion_dot": 1.05e-06,
        "meta_mean_motion_ddot": 0,
        "tle_line1": "1 25757U 99029B   25351.55706930  .00000105  00000+0  37650-4 0  9996",
        "tle_line2": "2 25757  98.6566 336.2196 0014199 177.8976 182.2281 14.52359578406886"
      },
      "geometry": {
        "type": "Point",
        "coordinates": [
          -151.7944858845768,
          77.63292057175452
        ]
      }
    },
    {
      "type": "Feature",
      "properties": {
        "norad_id": 25994,
        "name": "TERRA",
        "group": "resource",
        "lat": -7.307551097474022,
        "lon": -130.51498190473018,
        "alt_km": 695.2588082843395,
        "timestamp": "2025-12-25T07:00:33.698994+00:00",
        "meta_object_name": "TERRA",
        "meta_object_id": "1999-068A",
        "meta_epoch": "2025-12-24T20:49:05.354976",
        "meta_mean_motion": 14.60915016,
        "meta_eccentricity": 0.00034339,
        "meta_inclination": 97.9731,
        "meta_ra_of_asc_node": 50.1059,
        "meta_arg_of_pericenter": 70.4383,
        "meta_mean_anomaly": 44.8464,
        "meta_ephemeris_type": 0,
        "meta_classification_type": "U",
        "meta_norad_cat_id": 25994,
        "meta_element_set_no": 999,
        "meta_rev_at_epoch": 38415,
        "meta_bstar": 0.00010734462,
        "meta_mean_motion_dot": 4.81e-06,
        "meta_mean_motion_ddot": 0,
        "tle_line1": "1 25994U 99068A   25358.86742309  .00000481  00000+0  10734-3 0  9993",
        "tle_line2": "2 25994  97.9731  50.1059 0003433  70.4383  44.8464 14.60915016384159"
      },
      "geometry": {
        "type": "Point",
        "coordinates": [
          -130.51498190473018,
          -7.307551097474022
        ]
      }
    },
    {
      "type": "Feature",
      "properties": {
        "norad_id": 27004,
        "name": "MAROC-TUBSAT",
        "group": "resource",
        "lat": 45.744470370604695,
        "lon": 157.74819433584432,
        "alt_km": 1008.7991082356557,
        "timestamp": "2025-12-25T07:00:33.699006+00:00",
        "meta_object_name": "MAROC-TUBSAT",
        "meta_object_id": "2001-056D",
        "meta_epoch": "2025-12-24T16:49:19.722144",
        "meta_mean_motion": 13.70253456,
        "meta_eccentricity": 0.0019266,
        "meta_inclination": 99.7916,
        "meta_ra_of_asc_node": 167.3555,
        "meta_arg_of_pericenter": 228.421,
        "meta_mean_anomaly": 143.7745,
        "meta_ephemeris_type": 0,
        "meta_classification_type": "U",
        "meta_norad_cat_id": 27004,
        "meta_element_set_no": 999,
        "meta_rev_at_epoch": 20229,
        "meta_bstar": 2.304783e-05,
        "meta_mean_motion_dot": -2.6e-07,
        "meta_mean_motion_ddot": 0,
        "tle_line1": "1 27004U 01056D   25358.70092271 -.00000026  00000+0  23048-4 0  9995",
        "tle_line2": "2 27004  99.7916 167.3555 0019266 228.4210 143.7745 13.70253456202293"
      },
      "geometry": {
        "type": "Point",
        "coordinates": [
          157.74819433584432,
          45.744470370604695
        ]
      }
    },
    {
      "type": "Feature",
      "properties": {
        "norad_id": 27424,
        "name": "AQUA",
        "group": "resource",
        "lat": 74.0531941637478,
        "lon": 171.5393243847118,
        "alt_km": 679.1354375539231,
        "timestamp": "2025-12-25T07:00:33.699018+00:00",
        "meta_object_name": "AQUA",
        "meta_object_id": "2002-022A",
        "meta_epoch": "2025-12-24T19:18:33.414624",
        "meta_mean_motion": 14.61757572,
        "meta_eccentricity": 0.00018094,
        "meta_inclination": 98.4055,
        "meta_ra_of_asc_node": 319.881,
        "meta_arg_of_pericenter": 102.1365,
        "meta_mean_anomaly": 317.5475,
        "meta_ephemeris_type": 0,
        "meta_classification_type": "U",
        "meta_norad_cat_id": 27424,
        "meta_element_set_no": 999,
        "meta_rev_at_epoch": 25779,
        "meta_bstar": 0.00019560508,
        "meta_mean_motion_dot": 9.26e-06,
        "meta_mean_motion_ddot": 0,
        "tle_line1": "1 27424U 02022A   25358.80455341  .00000926  00000+0  19561-3 0  9999",
        "tle_line2": "2 27424  98.4055 319.8810 0001809 102.1365 317.5475 14.61757572257795"
      },
      "geometry": {
        "type": "Point",
        "coordinates": [
          171.5393243847118,
          74.0531941637478
        ]
      }
    }
  ]
}